{"type": "FeatureCollection", "features": [{"type": "Feature", "properties": {"zona": "Z01", "nombre": "Foro musical Amalaya"}, "geometry": {"type": "Polygon", "coordinates": [[[-110.95404, 29.076975], [-110.95347, 29.077027], [-110.953426, 29.076473], [-110.954034, 29.076364], [-110.95404, 29.076975]]]}}, {"type": "Feature", "properties": {"zona": "Z02", "nombre": "Plaza Hidalgo"}, "geometry": {"type": "Polygon", "coordinates": [[[-110.954561, 29.07615], [-110.954071, 29.076187], [-110.954055, 29.076023], [-110.955481, 29.075915], [-110.955498, 29.07608], [-110.954561, 29.07615]]]}}, {"type": "Feature", "properties": {"zona": "Z03", "nombre": "Locales y oficinas"}, "geometry": {"type": "Polygon", "coordinates": [[[-110.955537, 29.075887], [-110.954949, 29.075924], [-110.954933, 29.075601], [-110.955609, 29.075406], [-110.955537, 29.075887]]]}}, {"type": "Feature", "properties": {"zona": "Z04", "nombre": "Vivienda y estudios de ensayo"}, "geometry": {"type": "Polygon", "coordinates": [[[-110.95609, 29.075205], [-110.95535, 29.07542], [-110.955259, 29.075169], [-110.955383, 29.074951], [-110.955755, 29.074896], [-110.955937, 29.075034], [-110.956124, 29.07508], [-110.95609, 29.075205]]]}}, {"type": "Feature", "properties": {"zona": "Z05", "nombre": "Volumen azul / referencia al museo"}, "geometry": {"type": "Polygon", "coordinates": [[[-110.955164, 29.075463], [-110.954739, 29.075569], [-110.954751, 29.075298], [-110.955209, 29.075177], [-110.955164, 29.075463]]]}}, {"type": "Feature", "properties": {"zona": "Z06", "nombre": "Tiendas y talleres creativos"}, "geometry": {"type": "Polygon", "coordinates": [[[-110.955197, 29.075196], [-110.954784, 29.075303], [-110.954761, 29.074963], [-110.955244, 29.074817], [-110.955197, 29.075196]]]}}, {"type": "Feature", "properties": {"zona": "Z07", "nombre": "Estacionamiento frontal HEALY"}, "geometry": {"type": "Polygon", "coordinates": [[[-110.954574, 29.075423], [-110.954062, 29.075534], [-110.954177, 29.075035], [-110.954707, 29.074842], [-110.954574, 29.075423]]]}}, {"type": "Feature", "properties": {"zona": "Z08", "nombre": "Estacionamiento posterior aparente"}, "geometry": {"type": "Polygon", "coordinates": [[[-110.953508, 29.076556], [-110.953055, 29.07664], [-110.95315, 29.076084], [-110.953622, 29.076014], [-110.953508, 29.076556]]]}}, {"type": "Feature", "properties": {"zona": "Z09", "nombre": "Conjunto amarillo recortado"}, "geometry": {"type": "Polygon", "coordinates": [[[-110.952948, 29.076946], [-110.952498, 29.076936], [-110.952752, 29.076421], [-110.953057, 29.076379], [-110.952948, 29.076946]]]}}, {"type": "Feature", "properties": {"zona": "Z10", "nombre": "Volúmenes posteriores / transición"}, "geometry": {"type": "Polygon", "coordinates": [[[-110.953353, 29.077021], [-110.95316, 29.077098], [-110.953137, 29.076835], [-110.953373, 29.076699], [-110.953353, 29.077021]]]}}, {"type": "Feature", "properties": {"id": "P001", "zona": "Z01", "nombre": "Foro musical Amalaya", "tipo": "centro", "rumbo": 0}, "geometry": {"type": "Point", "coordinates": [-110.9537425, 29.0767098]}}, {"type": "Feature", "properties": {"id": "P002", "zona": "Z01", "nombre": "Foro musical Amalaya", "tipo": "centro", "rumbo": 90}, "geometry": {"type": "Point", "coordinates": [-110.9537425, 29.0767098]}}, {"type": "Feature", "properties": {"id": "P003", "zona": "Z01", "nombre": "Foro musical Amalaya", "tipo": "centro", "rumbo": 180}, "geometry": {"type": "Point", "coordinates": [-110.9537425, 29.0767098]}}, {"type": "Feature", "properties": {"id": "P004", "zona": "Z01", "nombre": "Foro musical Amalaya", "tipo": "centro", "rumbo": 270}, "geometry": {"type": "Point", "coordinates": [-110.9537425, 29.0767098]}}, {"type": "Feature", "properties": {"id": "P005", "zona": "Z01", "nombre": "Foro musical Amalaya", "tipo": "esquina", "rumbo": 136}, "geometry": {"type": "Point", "coordinates": [-110.95404, 29.076975]}}, {"type": "Feature", "properties": {"id": "P006", "zona": "Z01", "nombre": "Foro musical Amalaya", "tipo": "esquina", "rumbo": 217}, "geometry": {"type": "Point", "coordinates": [-110.95347, 29.077027]}}, {"type": "Feature", "properties": {"id": "P007", "zona": "Z01", "nombre": "Foro musical Amalaya", "tipo": "esquina", "rumbo": 311}, "geometry": {"type": "Point", "coordinates": [-110.953426, 29.076473]}}, {"type": "Feature", "properties": {"id": "P008", "zona": "Z01", "nombre": "Foro musical Amalaya", "tipo": "esquina", "rumbo": 36}, "geometry": {"type": "Point", "coordinates": [-110.954034, 29.076364]}}, {"type": "Feature", "properties": {"id": "P009", "zona": "Z01", "nombre": "Foro musical Amalaya", "tipo": "lado", "rumbo": 178}, "geometry": {"type": "Point", "coordinates": [-110.953755, 29.077001]}}, {"type": "Feature", "properties": {"id": "P010", "zona": "Z01", "nombre": "Foro musical Amalaya", "tipo": "lado", "rumbo": 261}, "geometry": {"type": "Point", "coordinates": [-110.953448, 29.07675]}}, {"type": "Feature", "properties": {"id": "P011", "zona": "Z01", "nombre": "Foro musical Amalaya", "tipo": "lado", "rumbo": 358}, "geometry": {"type": "Point", "coordinates": [-110.95373, 29.0764185]}}, {"type": "Feature", "properties": {"id": "P012", "zona": "Z01", "nombre": "Foro musical Amalaya", "tipo": "lado", "rumbo": 81}, "geometry": {"type": "Point", "coordinates": [-110.954037, 29.0766695]}}, {"type": "Feature", "properties": {"id": "P013", "zona": "Z10", "nombre": "Volúmenes posteriores / transición", "tipo": "centro", "rumbo": 0}, "geometry": {"type": "Point", "coordinates": [-110.9532557, 29.0769133]}}, {"type": "Feature", "properties": {"id": "P014", "zona": "Z10", "nombre": "Volúmenes posteriores / transición", "tipo": "centro", "rumbo": 90}, "geometry": {"type": "Point", "coordinates": [-110.9532557, 29.0769133]}}, {"type": "Feature", "properties": {"id": "P015", "zona": "Z10", "nombre": "Volúmenes posteriores / transición", "tipo": "centro", "rumbo": 180}, "geometry": {"type": "Point", "coordinates": [-110.9532557, 29.0769133]}}, {"type": "Feature", "properties": {"id": "P016", "zona": "Z10", "nombre": "Volúmenes posteriores / transición", "tipo": "centro", "rumbo": 270}, "geometry": {"type": "Point", "coordinates": [-110.9532557, 29.0769133]}}, {"type": "Feature", "properties": {"id": "P017", "zona": "Z10", "nombre": "Volúmenes posteriores / transición", "tipo": "esquina", "rumbo": 142}, "geometry": {"type": "Point", "coordinates": [-110.953353, 29.077021]}}, {"type": "Feature", "properties": {"id": "P018", "zona": "Z10", "nombre": "Volúmenes posteriores / transición", "tipo": "esquina", "rumbo": 204}, "geometry": {"type": "Point", "coordinates": [-110.95316, 29.077098]}}, {"type": "Feature", "properties": {"id": "P019", "zona": "Z10", "nombre": "Volúmenes posteriores / transición", "tipo": "esquina", "rumbo": 307}, "geometry": {"type": "Point", "coordinates": [-110.953137, 29.076835]}}, {"type": "Feature", "properties": {"id": "P020", "zona": "Z10", "nombre": "Volúmenes posteriores / transición", "tipo": "esquina", "rumbo": 26}, "geometry": {"type": "Point", "coordinates": [-110.953373, 29.076699]}}, {"type": "Feature", "properties": {"id": "P021", "zona": "Z10", "nombre": "Volúmenes posteriores / transición", "tipo": "lado", "rumbo": 180}, "geometry": {"type": "Point", "coordinates": [-110.9532565, 29.0770595]}}, {"type": "Feature", "properties": {"id": "P022", "zona": "Z10", "nombre": "Volúmenes posteriores / transición", "tipo": "lado", "rumbo": 240}, "geometry": {"type": "Point", "coordinates": [-110.9531485, 29.0769665]}}, {"type": "Feature", "properties": {"id": "P023", "zona": "Z10", "nombre": "Volúmenes posteriores / transición", "tipo": "lado", "rumbo": 360}, "geometry": {"type": "Point", "coordinates": [-110.953255, 29.076767]}}, {"type": "Feature", "properties": {"id": "P024", "zona": "Z10", "nombre": "Volúmenes posteriores / transición", "tipo": "lado", "rumbo": 60}, "geometry": {"type": "Point", "coordinates": [-110.953363, 29.07686]}}, {"type": "Feature", "properties": {"id": "P025", "zona": "Z09", "nombre": "Conjunto amarillo recortado", "tipo": "centro", "rumbo": 0}, "geometry": {"type": "Point", "coordinates": [-110.9528138, 29.0766705]}}, {"type": "Feature", "properties": {"id": "P026", "zona": "Z09", "nombre": "Conjunto amarillo recortado", "tipo": "centro", "rumbo": 90}, "geometry": {"type": "Point", "coordinates": [-110.9528138, 29.0766705]}}, {"type": "Feature", "properties": {"id": "P027", "zona": "Z09", "nombre": "Conjunto amarillo recortado", "tipo": "centro", "rumbo": 180}, "geometry": {"type": "Point", "coordinates": [-110.9528138, 29.0766705]}}, {"type": "Feature", "properties": {"id": "P028", "zona": "Z09", "nombre": "Conjunto amarillo recortado", "tipo": "centro", "rumbo": 270}, "geometry": {"type": "Point", "coordinates": [-110.9528138, 29.0766705]}}, {"type": "Feature", "properties": {"id": "P029", "zona": "Z09", "nombre": "Conjunto amarillo recortado", "tipo": "esquina", "rumbo": 157}, "geometry": {"type": "Point", "coordinates": [-110.952948, 29.076946]}}, {"type": "Feature", "properties": {"id": "P030", "zona": "Z09", "nombre": "Conjunto amarillo recortado", "tipo": "esquina", "rumbo": 226}, "geometry": {"type": "Point", "coordinates": [-110.952498, 29.076936]}}, {"type": "Feature", "properties": {"id": "P031", "zona": "Z09", "nombre": "Conjunto amarillo recortado", "tipo": "esquina", "rumbo": 348}, "geometry": {"type": "Point", "coordinates": [-110.952752, 29.076421]}}, {"type": "Feature", "properties": {"id": "P032", "zona": "Z09", "nombre": "Conjunto amarillo recortado", "tipo": "esquina", "rumbo": 36}, "geometry": {"type": "Point", "coordinates": [-110.953057, 29.076379]}}, {"type": "Feature", "properties": {"id": "P033", "zona": "Z09", "nombre": "Conjunto amarillo recortado", "tipo": "lado", "rumbo": 196}, "geometry": {"type": "Point", "coordinates": [-110.952723, 29.076941]}}, {"type": "Feature", "properties": {"id": "P034", "zona": "Z09", "nombre": "Conjunto amarillo recortado", "tipo": "lado", "rumbo": 267}, "geometry": {"type": "Point", "coordinates": [-110.952625, 29.0766785]}}, {"type": "Feature", "properties": {"id": "P035", "zona": "Z09", "nombre": "Conjunto amarillo recortado", "tipo": "lado", "rumbo": 16}, "geometry": {"type": "Point", "coordinates": [-110.9529045, 29.0764]}}, {"type": "Feature", "properties": {"id": "P036", "zona": "Z09", "nombre": "Conjunto amarillo recortado", "tipo": "lado", "rumbo": 87}, "geometry": {"type": "Point", "coordinates": [-110.9530025, 29.0766625]}}, {"type": "Feature", "properties": {"id": "P037", "zona": "Z08", "nombre": "Estacionamiento posterior aparente", "tipo": "centro", "rumbo": 0}, "geometry": {"type": "Point", "coordinates": [-110.9533337, 29.0763235]}}, {"type": "Feature", "properties": {"id": "P038", "zona": "Z08", "nombre": "Estacionamiento posterior aparente", "tipo": "centro", "rumbo": 90}, "geometry": {"type": "Point", "coordinates": [-110.9533337, 29.0763235]}}, {"type": "Feature", "properties": {"id": "P039", "zona": "Z08", "nombre": "Estacionamiento posterior aparente", "tipo": "centro", "rumbo": 180}, "geometry": {"type": "Point", "coordinates": [-110.9533337, 29.0763235]}}, {"type": "Feature", "properties": {"id": "P040", "zona": "Z08", "nombre": "Estacionamiento posterior aparente", "tipo": "centro", "rumbo": 270}, "geometry": {"type": "Point", "coordinates": [-110.9533337, 29.0763235]}}, {"type": "Feature", "properties": {"id": "P041", "zona": "Z08", "nombre": "Estacionamiento posterior aparente", "tipo": "esquina", "rumbo": 147}, "geometry": {"type": "Point", "coordinates": [-110.953508, 29.076556]}}, {"type": "Feature", "properties": {"id": "P042", "zona": "Z08", "nombre": "Estacionamiento posterior aparente", "tipo": "esquina", "rumbo": 218}, "geometry": {"type": "Point", "coordinates": [-110.953055, 29.07664]}}, {"type": "Feature", "properties": {"id": "P043", "zona": "Z08", "nombre": "Estacionamiento posterior aparente", "tipo": "esquina", "rumbo": 326}, "geometry": {"type": "Point", "coordinates": [-110.95315, 29.076084]}}, {"type": "Feature", "properties": {"id": "P044", "zona": "Z08", "nombre": "Estacionamiento posterior aparente", "tipo": "esquina", "rumbo": 39}, "geometry": {"type": "Point", "coordinates": [-110.953622, 29.076014]}}, {"type": "Feature", "properties": {"id": "P045", "zona": "Z08", "nombre": "Estacionamiento posterior aparente", "tipo": "lado", "rumbo": 189}, "geometry": {"type": "Point", "coordinates": [-110.9532815, 29.076598]}}, {"type": "Feature", "properties": {"id": "P046", "zona": "Z08", "nombre": "Estacionamiento posterior aparente", "tipo": "lado", "rumbo": 259}, "geometry": {"type": "Point", "coordinates": [-110.9531025, 29.076362]}}, {"type": "Feature", "properties": {"id": "P047", "zona": "Z08", "nombre": "Estacionamiento posterior aparente", "tipo": "lado", "rumbo": 9}, "geometry": {"type": "Point", "coordinates": [-110.953386, 29.076049]}}, {"type": "Feature", "properties": {"id": "P048", "zona": "Z08", "nombre": "Estacionamiento posterior aparente", "tipo": "lado", "rumbo": 79}, "geometry": {"type": "Point", "coordinates": [-110.953565, 29.076285]}}, {"type": "Feature", "properties": {"id": "P049", "zona": "Z02", "nombre": "Plaza Hidalgo", "tipo": "centro", "rumbo": 0}, "geometry": {"type": "Point", "coordinates": [-110.9547332, 29.076071]}}, {"type": "Feature", "properties": {"id": "P050", "zona": "Z02", "nombre": "Plaza Hidalgo", "tipo": "centro", "rumbo": 90}, "geometry": {"type": "Point", "coordinates": [-110.9547332, 29.076071]}}, {"type": "Feature", "properties": {"id": "P051", "zona": "Z02", "nombre": "Plaza Hidalgo", "tipo": "centro", "rumbo": 180}, "geometry": {"type": "Point", "coordinates": [-110.9547332, 29.076071]}}, {"type": "Feature", "properties": {"id": "P052", "zona": "Z02", "nombre": "Plaza Hidalgo", "tipo": "centro", "rumbo": 270}, "geometry": {"type": "Point", "coordinates": [-110.9547332, 29.076071]}}, {"type": "Feature", "properties": {"id": "P053", "zona": "Z02", "nombre": "Plaza Hidalgo", "tipo": "esquina", "rumbo": 242}, "geometry": {"type": "Point", "coordinates": [-110.954561, 29.07615]}}, {"type": "Feature", "properties": {"id": "P054", "zona": "Z02", "nombre": "Plaza Hidalgo", "tipo": "esquina", "rumbo": 259}, "geometry": {"type": "Point", "coordinates": [-110.954071, 29.076187]}}, {"type": "Feature", "properties": {"id": "P055", "zona": "Z02", "nombre": "Plaza Hidalgo", "tipo": "esquina", "rumbo": 275}, "geometry": {"type": "Point", "coordinates": [-110.954055, 29.076023]}}, {"type": "Feature", "properties": {"id": "P056", "zona": "Z02", "nombre": "Plaza Hidalgo", "tipo": "esquina", "rumbo": 77}, "geometry": {"type": "Point", "coordinates": [-110.955481, 29.075915]}}, {"type": "Feature", "properties": {"id": "P057", "zona": "Z02", "nombre": "Plaza Hidalgo", "tipo": "esquina", "rumbo": 91}, "geometry": {"type": "Point", "coordinates": [-110.955498, 29.07608]}}, {"type": "Feature", "properties": {"id": "P058", "zona": "Z02", "nombre": "Plaza Hidalgo", "tipo": "lado", "rumbo": 255}, "geometry": {"type": "Point", "coordinates": [-110.954316, 29.0761685]}}, {"type": "Feature", "properties": {"id": "P059", "zona": "Z02", "nombre": "Plaza Hidalgo", "tipo": "lado", "rumbo": 267}, "geometry": {"type": "Point", "coordinates": [-110.954063, 29.076105]}}, {"type": "Feature", "properties": {"id": "P060", "zona": "Z02", "nombre": "Plaza Hidalgo", "tipo": "lado", "rumbo": 17}, "geometry": {"type": "Point", "coordinates": [-110.954768, 29.075969]}}, {"type": "Feature", "properties": {"id": "P061", "zona": "Z02", "nombre": "Plaza Hidalgo", "tipo": "lado", "rumbo": 84}, "geometry": {"type": "Point", "coordinates": [-110.9554895, 29.0759975]}}, {"type": "Feature", "properties": {"id": "P062", "zona": "Z02", "nombre": "Plaza Hidalgo", "tipo": "lado", "rumbo": 100}, "geometry": {"type": "Point", "coordinates": [-110.9550295, 29.076115]}}, {"type": "Feature", "properties": {"id": "P063", "zona": "Z03", "nombre": "Locales y oficinas", "tipo": "centro", "rumbo": 0}, "geometry": {"type": "Point", "coordinates": [-110.955257, 29.0757045]}}, {"type": "Feature", "properties": {"id": "P064", "zona": "Z03", "nombre": "Locales y oficinas", "tipo": "centro", "rumbo": 90}, "geometry": {"type": "Point", "coordinates": [-110.955257, 29.0757045]}}, {"type": "Feature", "properties": {"id": "P065", "zona": "Z03", "nombre": "Locales y oficinas", "tipo": "centro", "rumbo": 180}, "geometry": {"type": "Point", "coordinates": [-110.955257, 29.0757045]}}, {"type": "Feature", "properties": {"id": "P066", "zona": "Z03", "nombre": "Locales y oficinas", "tipo": "centro", "rumbo": 270}, "geometry": {"type": "Point", "coordinates": [-110.955257, 29.0757045]}}, {"type": "Feature", "properties": {"id": "P067", "zona": "Z03", "nombre": "Locales y oficinas", "tipo": "esquina", "rumbo": 127}, "geometry": {"type": "Point", "coordinates": [-110.955537, 29.075887]}}, {"type": "Feature", "properties": {"id": "P068", "zona": "Z03", "nombre": "Locales y oficinas", "tipo": "esquina", "rumbo": 231}, "geometry": {"type": "Point", "coordinates": [-110.954949, 29.075924]}}, {"type": "Feature", "properties": {"id": "P069", "zona": "Z03", "nombre": "Locales y oficinas", "tipo": "esquina", "rumbo": 290}, "geometry": {"type": "Point", "coordinates": [-110.954933, 29.075601]}}, {"type": "Feature", "properties": {"id": "P070", "zona": "Z03", "nombre": "Locales y oficinas", "tipo": "esquina", "rumbo": 46}, "geometry": {"type": "Point", "coordinates": [-110.955609, 29.075406]}}, {"type": "Feature", "properties": {"id": "P071", "zona": "Z03", "nombre": "Locales y oficinas", "tipo": "lado", "rumbo": 183}, "geometry": {"type": "Point", "coordinates": [-110.955243, 29.0759055]}}, {"type": "Feature", "properties": {"id": "P072", "zona": "Z03", "nombre": "Locales y oficinas", "tipo": "lado", "rumbo": 258}, "geometry": {"type": "Point", "coordinates": [-110.954941, 29.0757625]}}, {"type": "Feature", "properties": {"id": "P073", "zona": "Z03", "nombre": "Locales y oficinas", "tipo": "lado", "rumbo": 3}, "geometry": {"type": "Point", "coordinates": [-110.955271, 29.0755035]}}, {"type": "Feature", "properties": {"id": "P074", "zona": "Z03", "nombre": "Locales y oficinas", "tipo": "lado", "rumbo": 78}, "geometry": {"type": "Point", "coordinates": [-110.955573, 29.0756465]}}, {"type": "Feature", "properties": {"id": "P075", "zona": "Z05", "nombre": "Volumen azul / referencia al museo", "tipo": "centro", "rumbo": 0}, "geometry": {"type": "Point", "coordinates": [-110.9549657, 29.0753768]}}, {"type": "Feature", "properties": {"id": "P076", "zona": "Z05", "nombre": "Volumen azul / referencia al museo", "tipo": "centro", "rumbo": 90}, "geometry": {"type": "Point", "coordinates": [-110.9549657, 29.0753768]}}, {"type": "Feature", "properties": {"id": "P077", "zona": "Z05", "nombre": "Volumen azul / referencia al museo", "tipo": "centro", "rumbo": 180}, "geometry": {"type": "Point", "coordinates": [-110.9549657, 29.0753768]}}, {"type": "Feature", "properties": {"id": "P078", "zona": "Z05", "nombre": "Volumen azul / referencia al museo", "tipo": "centro", "rumbo": 270}, "geometry": {"type": "Point", "coordinates": [-110.9549657, 29.0753768]}}, {"type": "Feature", "properties": {"id": "P079", "zona": "Z05", "nombre": "Volumen azul / referencia al museo", "tipo": "esquina", "rumbo": 116}, "geometry": {"type": "Point", "coordinates": [-110.955164, 29.075463]}}, {"type": "Feature", "properties": {"id": "P080", "zona": "Z05", "nombre": "Volumen azul / referencia al museo", "tipo": "esquina", "rumbo": 226}, "geometry": {"type": "Point", "coordinates": [-110.954739, 29.075569]}}, {"type": "Feature", "properties": {"id": "P081", "zona": "Z05", "nombre": "Volumen azul / referencia al museo", "tipo": "esquina", "rumbo": 293}, "geometry": {"type": "Point", "coordinates": [-110.954751, 29.075298]}}, {"type": "Feature", "properties": {"id": "P082", "zona": "Z05", "nombre": "Volumen azul / referencia al museo", "tipo": "esquina", "rumbo": 47}, "geometry": {"type": "Point", "coordinates": [-110.955209, 29.075177]}}, {"type": "Feature", "properties": {"id": "P083", "zona": "Z05", "nombre": "Volumen azul / referencia al museo", "tipo": "lado", "rumbo": 185}, "geometry": {"type": "Point", "coordinates": [-110.9549515, 29.075516]}}, {"type": "Feature", "properties": {"id": "P084", "zona": "Z05", "nombre": "Volumen azul / referencia al museo", "tipo": "lado", "rumbo": 254}, "geometry": {"type": "Point", "coordinates": [-110.954745, 29.0754335]}}, {"type": "Feature", "properties": {"id": "P085", "zona": "Z05", "nombre": "Volumen azul / referencia al museo", "tipo": "lado", "rumbo": 5}, "geometry": {"type": "Point", "coordinates": [-110.95498, 29.0752375]}}, {"type": "Feature", "properties": {"id": "P086", "zona": "Z05", "nombre": "Volumen azul / referencia al museo", "tipo": "lado", "rumbo": 74}, "geometry": {"type": "Point", "coordinates": [-110.9551865, 29.07532]}}, {"type": "Feature", "properties": {"id": "P087", "zona": "Z06", "nombre": "Tiendas y talleres creativos", "tipo": "centro", "rumbo": 0}, "geometry": {"type": "Point", "coordinates": [-110.9549965, 29.0750697]}}, {"type": "Feature", "properties": {"id": "P088", "zona": "Z06", "nombre": "Tiendas y talleres creativos", "tipo": "centro", "rumbo": 90}, "geometry": {"type": "Point", "coordinates": [-110.9549965, 29.0750697]}}, {"type": "Feature", "properties": {"id": "P089", "zona": "Z06", "nombre": "Tiendas y talleres creativos", "tipo": "centro", "rumbo": 180}, "geometry": {"type": "Point", "coordinates": [-110.9549965, 29.0750697]}}, {"type": "Feature", "properties": {"id": "P090", "zona": "Z06", "nombre": "Tiendas y talleres creativos", "tipo": "centro", "rumbo": 270}, "geometry": {"type": "Point", "coordinates": [-110.9549965, 29.0750697]}}, {"type": "Feature", "properties": {"id": "P091", "zona": "Z06", "nombre": "Tiendas y talleres creativos", "tipo": "esquina", "rumbo": 126}, "geometry": {"type": "Point", "coordinates": [-110.955197, 29.075196]}}, {"type": "Feature", "properties": {"id": "P092", "zona": "Z06", "nombre": "Tiendas y talleres creativos", "tipo": "esquina", "rumbo": 219}, "geometry": {"type": "Point", "coordinates": [-110.954784, 29.075303]}}, {"type": "Feature", "properties": {"id": "P093", "zona": "Z06", "nombre": "Tiendas y talleres creativos", "tipo": "esquina", "rumbo": 297}, "geometry": {"type": "Point", "coordinates": [-110.954761, 29.074963]}}, {"type": "Feature", "properties": {"id": "P094", "zona": "Z06", "nombre": "Tiendas y talleres creativos", "tipo": "esquina", "rumbo": 41}, "geometry": {"type": "Point", "coordinates": [-110.955244, 29.074817]}}, {"type": "Feature", "properties": {"id": "P095", "zona": "Z06", "nombre": "Tiendas y talleres creativos", "tipo": "lado", "rumbo": 182}, "geometry": {"type": "Point", "coordinates": [-110.9549905, 29.0752495]}}, {"type": "Feature", "properties": {"id": "P096", "zona": "Z06", "nombre": "Tiendas y talleres creativos", "tipo": "lado", "rumbo": 252}, "geometry": {"type": "Point", "coordinates": [-110.9547725, 29.075133]}}, {"type": "Feature", "properties": {"id": "P097", "zona": "Z06", "nombre": "Tiendas y talleres creativos", "tipo": "lado", "rumbo": 2}, "geometry": {"type": "Point", "coordinates": [-110.9550025, 29.07489]}}, {"type": "Feature", "properties": {"id": "P098", "zona": "Z06", "nombre": "Tiendas y talleres creativos", "tipo": "lado", "rumbo": 72}, "geometry": {"type": "Point", "coordinates": [-110.9552205, 29.0750065]}}, {"type": "Feature", "properties": {"id": "P099", "zona": "Z07", "nombre": "Estacionamiento frontal HEALY", "tipo": "centro", "rumbo": 0}, "geometry": {"type": "Point", "coordinates": [-110.95438, 29.0752085]}}, {"type": "Feature", "properties": {"id": "P100", "zona": "Z07", "nombre": "Estacionamiento frontal HEALY", "tipo": "centro", "rumbo": 90}, "geometry": {"type": "Point", "coordinates": [-110.95438, 29.0752085]}}, {"type": "Feature", "properties": {"id": "P101", "zona": "Z07", "nombre": "Estacionamiento frontal HEALY", "tipo": "centro", "rumbo": 180}, "geometry": {"type": "Point", "coordinates": [-110.95438, 29.0752085]}}, {"type": "Feature", "properties": {"id": "P102", "zona": "Z07", "nombre": "Estacionamiento frontal HEALY", "tipo": "centro", "rumbo": 270}, "geometry": {"type": "Point", "coordinates": [-110.95438, 29.0752085]}}, {"type": "Feature", "properties": {"id": "P103", "zona": "Z07", "nombre": "Estacionamiento frontal HEALY", "tipo": "esquina", "rumbo": 142}, "geometry": {"type": "Point", "coordinates": [-110.954574, 29.075423]}}, {"type": "Feature", "properties": {"id": "P104", "zona": "Z07", "nombre": "Estacionamiento frontal HEALY", "tipo": "esquina", "rumbo": 220}, "geometry": {"type": "Point", "coordinates": [-110.954062, 29.075534]}}, {"type": "Feature", "properties": {"id": "P105", "zona": "Z07", "nombre": "Estacionamiento frontal HEALY", "tipo": "esquina", "rumbo": 314}, "geometry": {"type": "Point", "coordinates": [-110.954177, 29.075035]}}, {"type": "Feature", "properties": {"id": "P106", "zona": "Z07", "nombre": "Estacionamiento frontal HEALY", "tipo": "esquina", "rumbo": 38}, "geometry": {"type": "Point", "coordinates": [-110.954707, 29.074842]}}, {"type": "Feature", "properties": {"id": "P107", "zona": "Z07", "nombre": "Estacionamiento frontal HEALY", "tipo": "lado", "rumbo": 191}, "geometry": {"type": "Point", "coordinates": [-110.954318, 29.0754785]}}, {"type": "Feature", "properties": {"id": "P108", "zona": "Z07", "nombre": "Estacionamiento frontal HEALY", "tipo": "lado", "rumbo": 252}, "geometry": {"type": "Point", "coordinates": [-110.9541195, 29.0752845]}}, {"type": "Feature", "properties": {"id": "P109", "zona": "Z07", "nombre": "Estacionamiento frontal HEALY", "tipo": "lado", "rumbo": 11}, "geometry": {"type": "Point", "coordinates": [-110.954442, 29.0749385]}}, {"type": "Feature", "properties": {"id": "P110", "zona": "Z07", "nombre": "Estacionamiento frontal HEALY", "tipo": "lado", "rumbo": 72}, "geometry": {"type": "Point", "coordinates": [-110.9546405, 29.0751325]}}, {"type": "Feature", "properties": {"id": "P111", "zona": "Z04", "nombre": "Vivienda y estudios de ensayo", "tipo": "centro", "rumbo": 0}, "geometry": {"type": "Point", "coordinates": [-110.9556997, 29.0751079]}}, {"type": "Feature", "properties": {"id": "P112", "zona": "Z04", "nombre": "Vivienda y estudios de ensayo", "tipo": "centro", "rumbo": 90}, "geometry": {"type": "Point", "coordinates": [-110.9556997, 29.0751079]}}, {"type": "Feature", "properties": {"id": "P113", "zona": "Z04", "nombre": "Vivienda y estudios de ensayo", "tipo": "centro", "rumbo": 180}, "geometry": {"type": "Point", "coordinates": [-110.9556997, 29.0751079]}}, {"type": "Feature", "properties": {"id": "P114", "zona": "Z04", "nombre": "Vivienda y estudios de ensayo", "tipo": "centro", "rumbo": 270}, "geometry": {"type": "Point", "coordinates": [-110.9556997, 29.0751079]}}, {"type": "Feature", "properties": {"id": "P115", "zona": "Z04", "nombre": "Vivienda y estudios de ensayo", "tipo": "esquina", "rumbo": 106}, "geometry": {"type": "Point", "coordinates": [-110.95609, 29.075205]}}, {"type": "Feature", "properties": {"id": "P116", "zona": "Z04", "nombre": "Vivienda y estudios de ensayo", "tipo": "esquina", "rumbo": 224}, "geometry": {"type": "Point", "coordinates": [-110.95535, 29.07542]}}, {"type": "Feature", "properties": {"id": "P117", "zona": "Z04", "nombre": "Vivienda y estudios de ensayo", "tipo": "esquina", "rumbo": 261}, "geometry": {"type": "Point", "coordinates": [-110.955259, 29.075169]}}, {"type": "Feature", "properties": {"id": "P118", "zona": "Z04", "nombre": "Vivienda y estudios de ensayo", "tipo": "esquina", "rumbo": 300}, "geometry": {"type": "Point", "coordinates": [-110.955383, 29.074951]}}, {"type": "Feature", "properties": {"id": "P119", "zona": "Z04", "nombre": "Vivienda y estudios de ensayo", "tipo": "esquina", "rumbo": 13}, "geometry": {"type": "Point", "coordinates": [-110.955755, 29.074896]}}, {"type": "Feature", "properties": {"id": "P120", "zona": "Z04", "nombre": "Vivienda y estudios de ensayo", "tipo": "esquina", "rumbo": 70}, "geometry": {"type": "Point", "coordinates": [-110.955937, 29.075034]}}, {"type": "Feature", "properties": {"id": "P121", "zona": "Z04", "nombre": "Vivienda y estudios de ensayo", "tipo": "esquina", "rumbo": 86}, "geometry": {"type": "Point", "coordinates": [-110.956124, 29.07508]}}, {"type": "Feature", "properties": {"id": "P122", "zona": "Z04", "nombre": "Vivienda y estudios de ensayo", "tipo": "lado", "rumbo": 175}, "geometry": {"type": "Point", "coordinates": [-110.95572, 29.0753125]}}, {"type": "Feature", "properties": {"id": "P123", "zona": "Z04", "nombre": "Vivienda y estudios de ensayo", "tipo": "lado", "rumbo": 242}, "geometry": {"type": "Point", "coordinates": [-110.9553045, 29.0752945]}}, {"type": "Feature", "properties": {"id": "P124", "zona": "Z04", "nombre": "Vivienda y estudios de ensayo", "tipo": "lado", "rumbo": 278}, "geometry": {"type": "Point", "coordinates": [-110.955321, 29.07506]}}, {"type": "Feature", "properties": {"id": "P125", "zona": "Z04", "nombre": "Vivienda y estudios de ensayo", "tipo": "lado", "rumbo": 328}, "geometry": {"type": "Point", "coordinates": [-110.955569, 29.0749235]}}, {"type": "Feature", "properties": {"id": "P126", "zona": "Z04", "nombre": "Vivienda y estudios de ensayo", "tipo": "lado", "rumbo": 42}, "geometry": {"type": "Point", "coordinates": [-110.955846, 29.074965]}}, {"type": "Feature", "properties": {"id": "P127", "zona": "Z04", "nombre": "Vivienda y estudios de ensayo", "tipo": "lado", "rumbo": 80}, "geometry": {"type": "Point", "coordinates": [-110.9560305, 29.075057]}}, {"type": "Feature", "properties": {"id": "P128", "zona": "Z04", "nombre": "Vivienda y estudios de ensayo", "tipo": "lado", "rumbo": 96}, "geometry": {"type": "Point", "coordinates": [-110.956107, 29.0751425]}}]}